{
  "type": "FeatureCollection",
  "features": [
    {
      "type": "Feature",
      "properties": {
        "norad_id": 43823,
        "name": "GEO-KOMPSAT-2A",
        "group": "weather",
        "lat": 0.02426370113523807,
        "lon": 123.42573669003336,
        "alt_km": 35784.440234826216,
        "timestamp": "2025-12-18T17:50:14.600416+00:00",
        "meta_object_name": "GEO-KOMPSAT-2A",
        "meta_object_id": "2018-100A",
        "meta_epoch": "2025-12-16T07:07:06.206304",
        "meta_mean_motion": 1.00271835,
        "meta_eccentricity": 4.993e-05,
        "meta_inclination": 0.0508,
        "meta_ra_of_asc_node": 132.3973,
        "meta_arg_of_pericenter": 330.4458,
        "meta_mean_anomaly": 217.3998,
        "meta_ephemeris_type": 0,
        "meta_classification_type": "U",
        "meta_norad_cat_id": 43823,
        "meta_element_set_no": 999,
        "meta_rev_at_epoch": 2579,
        "meta_bstar": 0,
        "meta_mean_motion_dot": -3.2e-06,
        "meta_mean_motion_ddot": 0,
        "tle_line1": "1 43823U 18100A   25350.29659961 -.00000320  00000+0  00000+0 0  9996",
        "tle_line2": "2 43823   0.0508 132.3973 0000499 330.4458 217.3998  1.00271835 25791"
      },
      "geometry": {
        "type": "Point",
        "coordinates": [
          123.42573669003336,
          0.02426370113523807
        ]
      }
    },
    {
      "type": "Feature",
      "properties": {
        "norad_id": 44387,
        "name": "METEOR-M2 2",
        "group": "weather",
        "lat": -0.4067745191946564,
        "lon": 152.48196446845537,
        "alt_km": 813.0970042516419,
        "timestamp": "2025-12-18T17:50:14.600427+00:00",
        "meta_object_name": "METEOR-M2 2",
        "meta_object_id": "2019-038A",
        "meta_epoch": "2025-12-18T06:52:39.781056",
        "meta_mean_motion": 14.24294222,
        "meta_eccentricity": 0.00014593,
        "meta_inclination": 98.8968,
        "meta_ra_of_asc_node": 332.0835,
        "meta_arg_of_pericenter": 136.1632,
        "meta_mean_anomaly": 223.9662,
        "meta_ephemeris_type": 0,
        "meta_classification_type": "U",
        "meta_norad_cat_id": 44387,
        "meta_element_set_no": 999,
        "meta_rev_at_epoch": 33554,
        "meta_bstar": 9.9457918e-05,
        "meta_mean_motion_dot": 1.84e-06,
        "meta_mean_motion_ddot": 0,
        "tle_line1": "1 44387U 19038A   25352.28657154  .00000184  00000+0  99458-4 0  9993",
        "tle_line2": "2 44387  98.8968 332.0835 0001459 136.1632 223.9662 14.24294222335543"
      },
      "geometry": {
        "type": "Point",
        "coordinates": [
          152.48196446845537,
          -0.4067745191946564
        ]
      }
    },
    {
      "type": "Feature",
      "properties": {
        "norad_id": 47719,
        "name": "ARKTIKA-M 1",
        "group": "weather",
        "lat": 62.09637439048448,
        "lon": 155.8244853937007,
        "alt_km": 38394.38792785195,
        "timestamp": "2025-12-18T17:50:14.600452+00:00",
        "meta_object_name": "ARKTIKA-M 1",
        "meta_object_id": "2021-016A",
        "meta_epoch": "2025-12-18T01:24:39.137184",
        "meta_mean_motion": 2.00630666,
        "meta_eccentricity": 0.72069203,
        "meta_inclination": 63.1752,
        "meta_ra_of_asc_node": 83.2669,
        "meta_arg_of_pericenter": 269.1449,
        "meta_mean_anomaly": 15.5709,
        "meta_ephemeris_type": 0,
        "meta_classification_type": "U",
        "meta_norad_cat_id": 47719,
        "meta_element_set_no": 999,
        "meta_rev_at_epoch": 3515,
        "meta_bstar": 0,
        "meta_mean_motion_dot": -1.26e-06,
        "meta_mean_motion_ddot": 0,
        "tle_line1": "1 47719U 21016A   25352.05878631 -.00000126  00000+0  00000+0 0  9991",
        "tle_line2": "2 47719  63.1752  83.2669 7206920 269.1449  15.5709  2.00630666 35159"
      },
      "geometry": {
        "type": "Point",
        "coordinates": [
          155.8244853937007,
          62.09637439048448
        ]
      }
    },
    {
      "type": "Feature",
      "properties": {
        "norad_id": 49008,
        "name": "FENGYUN 3E",
        "group": "weather",
        "lat": 43.52114252937537,
        "lon": -15.214047701448711,
        "alt_km": 822.5348760614988,
        "timestamp": "2025-12-18T17:50:14.600466+00:00",
        "meta_object_name": "FENGYUN 3E",
        "meta_object_id": "2021-062A",
        "meta_epoch": "2025-12-18T07:28:57.533664",
        "meta_mean_motion": 14.19879711,
        "meta_eccentricity": 6.397e-05,
        "meta_inclination": 98.7472,
        "meta_ra_of_asc_node": 352.7672,
        "meta_arg_of_pericenter": 227.7686,
        "meta_mean_anomaly": 132.3436,
        "meta_ephemeris_type": 0,
        "meta_classification_type": "U",
        "meta_norad_cat_id": 49008,
        "meta_element_set_no": 999,
        "meta_rev_at_epoch": 23091,
        "meta_bstar": -0.00012759408,
        "meta_mean_motion_dot": -3.15e-06,
        "meta_mean_motion_ddot": 0,
        "tle_line1": "1 49008U 21062A   25352.31177701 -.00000315  00000+0 -12759-3 0  9993",
        "tle_line2": "2 49008  98.7472 352.7672 0000639 227.7686 132.3436 14.19879711230913"
      },
      "geometry": {
        "type": "Point",
        "coordinates": [
          -15.214047701448711,
          43.52114252937537
        ]
      }
    },
    {
      "type": "Feature",
      "properties": {
        "norad_id": 51850,
        "name": "GOES 18",
        "group": "weather",
        "lat": 0.004980250677489812,
        "lon": -141.8502020698564,
        "alt_km": 35786.68642279302,
        "timestamp": "2025-12-18T17:50:14.600478+00:00",
        "meta_object_name": "GOES 18",
        "meta_object_id": "2022-021A",
        "meta_epoch": "2025-12-18T05:40:18.417792",
        "meta_mean_motion": 1.00272451,
        "meta_eccentricity": 4.74e-05,
        "meta_inclination": 0.0207,
        "meta_ra_of_asc_node": 170.9538,
        "meta_arg_of_pericenter": 162.3851,
        "meta_mean_anomaly": 61.8421,
        "meta_ephemeris_type": 0,
        "meta_classification_type": "U",
        "meta_norad_cat_id": 51850,
        "meta_element_set_no": 999,
        "meta_rev_at_epoch": 477,
        "meta_bstar": 0,
        "meta_mean_motion_dot": 1.22e-06,
        "meta_mean_motion_ddot": 0,
        "tle_line1": "1 51850U 22021A   25352.23632428  .00000122  00000+0  00000+0 0  9996",
        "tle_line2": "2 51850   0.0207 170.9538 0000474 162.3851  61.8421  1.00272451  4776"
      },
      "geometry": {
        "type": "Point",
        "coordinates": [
          -141.8502020698564,
          0.004980250677489812
        ]
      }
    },
    {
      "type": "Feature",
      "properties": {
        "norad_id": 54234,
        "name": "NOAA 21 (JPSS-2)",
        "group": "weather",
        "lat": 42.294881941711026,
        "lon": -79.07484537047505,
        "alt_km": 822.08495379541,
        "timestamp": "2025-12-18T17:50:14.600497+00:00",
        "meta_object_name": "NOAA 21 (JPSS-2)",
        "meta_object_id": "2022-150A",
        "meta_epoch": "2025-12-18T05:47:39.837984",
        "meta_mean_motion": 14.19525773,
        "meta_eccentricity": 0.00019879,
        "meta_inclination": 98.7468,
        "meta_ra_of_asc_node": 288.4812,
        "meta_arg_of_pericenter": 27.296,
        "meta_mean_anomaly": 332.832,
        "meta_ephemeris_type": 0,
        "meta_classification_type": "U",
        "meta_norad_cat_id": 54234,
        "meta_element_set_no": 999,
        "meta_rev_at_epoch": 16087,
        "meta_bstar": 4.454891e-05,
        "meta_mean_motion_dot": 5e-07,
        "meta_mean_motion_ddot": 0,
        "tle_line1": "1 54234U 22150A   25352.24143331  .00000050  00000+0  44549-4 0  9990",
        "tle_line2": "2 54234  98.7468 288.4812 0001987  27.2960 332.8320 14.19525773160873"
      },
      "geometry": {
        "type": "Point",
        "coordinates": [
          -79.07484537047505,
          42.294881941711026
        ]
      }
    },
    {
      "type": "Feature",
      "properties": {
        "norad_id": 54743,
        "name": "METEOSAT-12 (MTG-I1)",
        "group": "weather",
        "lat": -0.3395491467374992,
        "lon": -5.128980760868924,
        "alt_km": 35786.64845596094,
        "timestamp": "2025-12-18T17:50:14.600509+00:00",
        "meta_object_name": "METEOSAT-12 (MTG-I1)",
        "meta_object_id": "2022-170C",
        "meta_epoch": "2025-12-18T01:18:34.195680",
        "meta_mean_motion": 1.00270248,
        "meta_eccentricity": 0.00014983,
        "meta_inclination": 0.6921,
        "meta_ra_of_asc_node": 24.4989,
        "meta_arg_of_pericenter": 239.2649,
        "meta_mean_anomaly": 202.5057,
        "meta_ephemeris_type": 0,
        "meta_classification_type": "U",
        "meta_norad_cat_id": 54743,
        "meta_element_set_no": 999,
        "meta_rev_at_epoch": 1116,
        "meta_bstar": 0,
        "meta_mean_motion_dot": 1.7e-07,
        "meta_mean_motion_ddot": 0,
        "tle_line1": "1 54743U 22170C   25352.05456245  .00000017  00000+0  00000+0 0  9999",
        "tle_line2": "2 54743   0.6921  24.4989 0001498 239.2649 202.5057  1.00270248 11160"
      },
      "geometry": {
        "type": "Point",
        "coordinates": [
          -5.128980760868924,
          -0.3395491467374992
        ]
      }
    }
  ]
}